ONEWEB-0309             
1 49095U 21075W   23315.72362228  .00000027  00000+0  36875-4 0  9999
2 49095  87.9232 194.3867 0001322 100.6685 259.4596 13.17648804109666
ONEWEB-0310             
1 49096U 21075X   23315.61699811  .00000444  00000+0  11995-2 0  9996
2 49096  87.9040 179.3049 0001296  84.2309 275.8967 13.12442944110768
ONEWEB-0311             
1 49097U 21075Y   23315.72994967  .00000088  00000+0  19378-3 0  9997
2 49097  87.9235 194.3849 0002058  85.2378 274.8989 13.17651769109723
ONEWEB-0312             
1 49098U 21075Z   23315.43886399 -.00000075  00000+0 -22667-3 0  9998
2 49098  87.9252 194.4671 0001692  95.4095 264.7230 13.17648091108662
ONEWEB-0313             
1 49099U 21075AA  23315.72151859  .00000068  00000+0  14150-3 0  9995
2 49099  87.9234 194.4220 0001741  89.7494 270.3837 13.17650547109696
ONEWEB-0314             
1 49100U 21075AB  23315.41144621 -.00000029  00000+0 -10694-3 0  9991
2 49100  87.9236 194.4461 0001825  96.0017 264.1323 13.17646683108622
ONEWEB-0315             
1 49101U 21075AC  23315.66674487 -.00000179  00000+0 -53314-3 0  9999
2 49101  87.9029 179.3026 0001764  72.0181 288.1140 13.12441717111757
ONEWEB-0316             
1 49102U 21075AD  23315.55094853  .00000033  00000+0  49947-4 0  9996
2 49102  87.9158 164.1826 0001900  84.0790 276.0559 13.18685495112189
